OBJECT C                
1 57582U 23117C   24258.16445479  .00024960  00000+0  12179-2 0  9994
2 57582  97.4793 329.0959 0009739 351.1127   8.9933 15.18239917 60670
